NORAD_CAT_ID,OBJECT_NAME,OBJECT_TYPE,EPOCH,MEAN_MOTION,ECCENTRICITY,INCLINATION,RA_OF_ASC_NODE,ARG_OF_PERICENTER,MEAN_ANOMALY,BSTAR,MEAN_MOTION_DOT,MEAN_MOTION_DDOT,TLE_LINE0,TLE_LINE1,TLE_LINE2,SEMIMAJOR_AXIS,PERIOD,APOGEE,PERIGEE,DECAYED
53991.0,STARLINK-5118,PAYLOAD,2023-11-04 15:55:50,15.07206795,0.0001414,53.2166,86.7975,90.3498,269.7655,0.00011864,1.523e-05,0.0,0 STARLINK-5118,1 53991U 22125AD  23308.66377501  .00001523  00000-0  11864-3 0  9994,2 53991  53.2166  86.7975 0001414  90.3498 269.7655 15.07206795 60364,6922.877,95.541,545.721,543.763,0.0
53991.0,STARLINK-5118,PAYLOAD,2023-11-05 09:26:12,15.07212369,0.000132,53.2173,83.5311,87.8115,272.3028,0.00023363,3.275e-05,0.0,0 STARLINK-5118,1 53991U 22125AD  23309.39320241  .00003275  00000-0  23363-3 0  9997,2 53991  53.2173  83.5311 0001320  87.8115 272.3028 15.07212369 60553,6922.86,95.541,545.639,543.811,0.0
53991.0,STARLINK-5118,PAYLOAD,2023-11-05 14:12:40,15.07218423,0.0001383,53.2171,82.6405,87.4918,272.6232,0.000295,4.211e-05,0.0,0 STARLINK-5118,1 53991U 22125AD  23309.59213437  .00004211  00000-0  29500-3 0  9997,2 53991  53.2171  82.6405 0001383  87.4918 272.6232 15.07218423 60503,6922.841,95.54,545.664,543.749,0.0
53991.0,STARLINK-5118,PAYLOAD,2023-11-05 15:48:09,15.07224233,0.0001421,53.2173,82.3434,88.8381,271.2774,0.0003184,4.569e-05,0.0,0 STARLINK-5118,1 53991U 22125AD  23309.65844331  .00004569  00000-0  31840-3 0  9993,2 53991  53.2173  82.3434 0001421  88.8381 271.2774 15.07224233 60597,6922.824,95.54,545.672,543.705,0.0
53991.0,STARLINK-5118,PAYLOAD,2023-11-06 14:05:00,15.07201783,0.0001338,53.2174,78.1873,97.7433,262.371,-0.00019395,-3.234e-05,0.0,0 STARLINK-5118,1 53991U 22125AD  23310.58681076 -.00003234  00000-0 -19395-3 0  9993,2 53991  53.2174  78.1873 0001338  97.7433 262.3710 15.07201783 60655,6922.892,95.541,545.684,543.831,0.0
53991.0,STARLINK-5118,PAYLOAD,2023-11-06 15:40:29,15.07198458,0.0001339,53.2176,77.8897,87.8946,272.2198,-0.00036541,-5.84e-05,0.0,0 STARLINK-5118,1 53991U 22125AD  23310.65312239 -.00005840  00000-0 -36541-3 0  9990,2 53991  53.2176  77.8897 0001339  87.8946 272.2198 15.07198458 60743,6922.902,95.541,545.694,543.841,0.0
53991.0,STARLINK-5118,PAYLOAD,2023-11-07 09:10:53,15.07184854,0.0001289,53.2172,74.6238,98.3308,261.783,-0.0003622,-5.789e-05,0.0,0 STARLINK-5118,1 53991U 22125AD  23311.38256569 -.00005789  00000-0 -36220-3 0  9990,2 53991  53.2172  74.6238 0001289  98.3308 261.7830 15.07184854 60859,6922.944,95.542,545.702,543.917,0.0
53991.0,STARLINK-5118,PAYLOAD,2023-11-07 13:57:21,15.07189003,0.0001319,53.2168,73.7341,92.5597,267.5545,-0.00021603,-3.569e-05,0.0,0 STARLINK-5118,1 53991U 22125AD  23311.58150180 -.00003569  00000-0 -21603-3 0  9997,2 53991  53.2168  73.7341 0001319  92.5597 267.5545 15.07189003 60802,6922.931,95.542,545.71,543.883,0.0
53991.0,STARLINK-5118,PAYLOAD,2023-11-08 01:05:47,15.07194063,0.0001392,53.2174,71.6556,97.8847,262.2302,2.9739e-05,1.69e-06,0.0,0 STARLINK-5118,1 53991U 22125AD  23312.04568931  .00000169  00000-0  29739-4 0  9996,2 53991  53.2174  71.6556 0001392  97.8847 262.2302 15.07194063 60952,6922.916,95.542,545.745,543.817,0.0
53991.0,STARLINK-5118,PAYLOAD,2023-11-08 13:49:42,15.07200105,0.0001409,53.2172,69.2802,102.885,257.2299,0.00046814,6.849e-05,0.0,0 STARLINK-5118,1 53991U 22125AD  23312.57618945  .00006849  00000-0  46814-3 0  9998,2 53991  53.2172  69.2802 0001409 102.8850 257.2299 15.07200105 60951,6922.897,95.541,545.738,543.787,0.0
53991.0,STARLINK-5118,PAYLOAD,2023-11-08 15:25:11,15.07208118,0.0001236,53.217,68.9836,101.1133,258.9997,0.00063835,9.447e-05,0.0,0 STARLINK-5118,1 53991U 22125AD  23312.64249943  .00009447  00000-0  63835-3 0  9993,2 53991  53.2170  68.9836 0001236 101.1133 258.9997 15.07208118 61042,6922.873,95.541,545.594,543.882,0.0
53991.0,STARLINK-5118,PAYLOAD,2023-11-09 12:06:33,15.0721046,0.0001494,53.2181,65.1234,86.4679,273.6483,0.00036381,5.259e-05,0.0,0 STARLINK-5118,1 53991U 22125AD  23313.50455442  .00005259  00000-0  36381-3 0  9995,2 53991  53.2181  65.1234 0001494  86.4679 273.6483 15.07210460 61172,6922.866,95.541,545.765,543.696,0.0
53991.0,STARLINK-5118,PAYLOAD,2023-11-09 13:42:02,15.07212519,0.000119,53.2179,64.8266,78.76,281.3525,0.0003371,4.853e-05,0.0,0 STARLINK-5118,1 53991U 22125AD  23313.57086390  .00004853  00000-0  33710-3 0  9996,2 53991  53.2179  64.8266 0001190  78.7600 281.3525 15.07212519 61104,6922.859,95.541,545.548,543.901,0.0
53991.0,STARLINK-5118,PAYLOAD,2023-11-09 15:17:31,15.07215334,0.0001317,53.2182,64.53,71.636,288.4774,0.00041172,5.991e-05,0.0,0 STARLINK-5118,1 53991U 22125AD  23313.63717533  .00005991  00000-0  41172-3 0  9998,2 53991  53.2182  64.5300 0001317  71.6360 288.4774 15.07215334 61113,6922.851,95.54,545.628,543.804,0.0
53991.0,STARLINK-5118,PAYLOAD,2023-11-10 11:58:53,15.07211594,0.0001143,53.2161,60.6678,97.0134,263.0988,0.00021187,2.944e-05,0.0,0 STARLINK-5118,1 53991U 22125AD  23314.49922842  .00002944  00000-0  21187-3 0  9993,2 53991  53.2161  60.6678 0001143  97.0134 263.0988 15.07211594 61326,6922.862,95.541,545.519,543.936,0.0
53991.0,STARLINK-5118,PAYLOAD,2023-11-10 13:34:22,15.07215707,0.0001411,53.2162,60.3699,94.9,265.2152,0.00013437,1.763e-05,0.0,0 STARLINK-5118,1 53991U 22125AD  23314.56553709  .00001763  00000-0  13437-3 0  9990,2 53991  53.2162  60.3699 0001411  94.9000 265.2152 15.07215707 61252,6922.85,95.54,545.691,543.738,0.0
53991.0,STARLINK-5118,PAYLOAD,2023-11-11 13:26:42,15.07209223,0.0001639,53.2179,55.9177,89.2007,270.9172,-1.8895e-07,-2.86e-06,0.0,0 STARLINK-5118,1 53991U 22125AD  23315.56021759 -.00000286  00000-0 -18895-6 0  9993,2 53991  53.2179  55.9177 0001639  89.2007 270.9172 15.07209223 61405,6922.87,95.541,545.869,543.6,0.0
53991.0,STARLINK-5118,PAYLOAD,2023-11-12 11:43:34,15.07201774,0.0001562,53.2186,51.7604,92.2748,267.8423,4.4858e-05,3.99e-06,0.0,0 STARLINK-5118,1 53991U 22125AD  23316.48858933  .00000399  00000-0  44858-4 0  9996,2 53991  53.2186  51.7604 0001562  92.2748 267.8423 15.07201774 61624,6922.892,95.541,545.839,543.676,0.0
53991.0,STARLINK-5118,PAYLOAD,2023-11-12 13:19:03,15.07197032,0.0001728,53.2187,51.463,96.6158,263.503,0.00018381,2.515e-05,0.0,0 STARLINK-5118,1 53991U 22125AD  23316.55490270  .00002515  00000-0  18381-3 0  9993,2 53991  53.2187  51.4630 0001728  96.6158 263.5030 15.07197032 61558,6922.907,95.542,545.968,543.576,0.0
53991.0,STARLINK-5118,PAYLOAD,2023-11-12 16:30:01,15.07213387,0.0001349,53.2193,50.869,93.0516,267.063,-5.1572e-05,-1.068e-05,0.0,0 STARLINK-5118,1 53991U 22125AD  23316.68751840 -.00001068  00000-0 -51572-4 0  9994,2 53991  53.2193  50.8690 0001349  93.0516 267.0630 15.07213387 61650,6922.857,95.541,545.656,543.788,0.0
53991.0,STARLINK-5118,PAYLOAD,2023-11-12 22:51:56,15.07236382,0.0001013,53.2188,49.6821,104.9857,255.1246,0.00029796,4.259e-05,0.0,0 STARLINK-5118,1 53991U 22125AD  23316.95273784  .00004259  00000-0  29796-3 0  9995,2 53991  53.2188  49.6821 0001013 104.9857 255.1246 15.07236382 61699,6922.786,95.539,545.353,543.95,0.0
53991.0,STARLINK-5118,PAYLOAD,2023-11-13 11:35:25,15.07542623,0.000144,53.2188,47.304,100.1065,260.0089,0.0028934,0.00044444,0.0,0 STARLINK-5118,1 53991U 22125AD  23317.48292866  .00044444  00000-0  28934-2 0  9998,2 53991  53.2188  47.3040 0001440 100.1065 260.0089 15.07542623 61777,6921.849,95.52,544.711,542.717,0.0
53991.0,STARLINK-5118,PAYLOAD,2023-11-13 14:46:17,15.07600889,0.0001567,53.2188,46.7094,95.6689,264.4481,0.0032916,0.00050726,0.0,0 STARLINK-5118,1 53991U 22125AD  23317.61547862  .00050726  00000-0  32916-2 0  9997,2 53991  53.2188  46.7094 0001567  95.6689 264.4481 15.07600889 61794,6921.67,95.516,544.62,542.451,0.0
53991.0,STARLINK-5118,PAYLOAD,2023-11-13 22:43:25,15.07753157,0.0001293,53.2191,45.2229,122.9571,237.1545,0.004323,0.00067143,0.0,0 STARLINK-5118,1 53991U 22125AD  23317.94681837  .00067143  00000-0  43230-2 0  9996,2 53991  53.2191  45.2229 0001293 122.9571 237.1545 15.07753157 61843,6921.204,95.506,543.964,542.175,0.0
53991.0,STARLINK-5118,PAYLOAD,2023-11-14 11:26:32,15.08150886,0.0001598,53.2194,42.8438,104.057,256.06,0.0069541,0.00110027,0.0,0 STARLINK-5118,1 53991U 22125AD  23318.47676215  .00110027  00000-0  69541-2 0  9992,2 53991  53.2194  42.8438 0001598 104.0570 256.0600 15.08150886 61921,6919.988,95.481,542.958,540.747,0.0
53991.0,STARLINK-5118,PAYLOAD,2023-11-14 13:01:57,15.08166687,0.0001465,53.219,42.5476,91.1295,268.9865,0.0069768,0.00110441,0.0,0 STARLINK-5118,1 53991U 22125AD  23318.54302758  .00110441  00000-0  69768-2 0  9999,2 53991  53.2190  42.5476 0001465  91.1295 268.9865 15.08166687 61852,6919.939,95.48,542.818,540.79,0.0
53991.0,STARLINK-5118,PAYLOAD,2023-11-14 22:00:00,15.08843826,0.0001306,53.2172,40.8746,99.9514,129.3529,-0.0010156,-0.00016416,0.0,0 STARLINK-5118,1 53991U 22125AD  23318.91667824 -.00016416  00000-0 -10156-2 0  9994,2 53991  53.2172  40.8746 0001306  99.9514 129.3529 15.08843826  5826,6917.869,95.437,540.637,538.83,0.0
53991.0,STARLINK-5118,PAYLOAD,2023-11-15 06:00:02,15.08853436,0.0001426,53.2172,39.3779,105.1038,135.8545,0.0010685,0.00016764,0.0,0 STARLINK-5118,1 53991U 22125AD  23319.25002315  .00016764  00000-0  10685-2 0  9991,2 53991  53.2172  39.3779 0001426 105.1038 135.8545 15.08853436 62033,6917.839,95.437,540.691,538.718,0.0
53991.0,STARLINK-5118,PAYLOAD,2023-11-15 14:00:01,15.08843968,0.000144,53.217,37.8832,90.3613,162.22,-0.001619,-0.00025965,0.0,0 STARLINK-5118,1 53991U 22125AD  23319.58335648 -.00025965  00000-0 -16190-2 0  9997,2 53991  53.2170  37.8832 0001440  90.3613 162.2200 15.08843968 62080,6917.868,95.437,540.729,538.737,0.0
53991.0,STARLINK-5118,PAYLOAD,2023-11-15 22:00:00,15.08838797,0.0001427,53.2168,36.3857,92.8542,171.2517,-0.000786,-0.00012775,0.0,0 STARLINK-5118,1 53991U 22125AD  23319.91667824 -.00012775  00000-0 -78600-3 0  9998,2 53991  53.2168  36.3857 0001427  92.8542 171.2517 15.08838797  5713,6917.884,95.438,540.736,538.762,0.0
